{
  "norad_id": 57708,
  "name": "STARLINK-30315",
  "history": [
    {
      "epoch": "2026-03-28T18:50:35.496384Z",
      "apogee_km": 484.23908950198984,
      "perigee_km": 481.8232721855147,
      "latitude_deg": 1.1345813053474042e-05,
      "longitude_deg": -98.84298784042824,
      "height_km": 482.9211349422047,
      "semi_major_axis_km": 6861.1681808437515,
      "eccentricity": 0.00017605,
      "inclination_deg": 43.0049,
      "raan_deg": 10.0055,
      "arg_perigee_deg": 264.6588,
      "mean_anomaly_deg": 95.4063,
      "mean_motion_rev_day": 15.27585983
    },
    {
      "epoch": "2026-03-29T04:15:32.574240Z",
      "apogee_km": 484.1984474322553,
      "perigee_km": 481.97952694799733,
      "latitude_deg": 3.0126166438586924e-05,
      "longitude_deg": 117.31701237074212,
      "height_km": 482.81037703815764,
      "semi_major_axis_km": 6861.225987190126,
      "eccentricity": 0.0001617,
      "inclination_deg": 43.0026,
      "raan_deg": 7.79,
      "arg_perigee_deg": 272.882,
      "mean_anomaly_deg": 87.1847,
      "mean_motion_rev_day": 15.27566678
    },
    {
      "epoch": "2026-03-30T03:47:53.054880Z",
      "apogee_km": 484.2628466138476,
      "perigee_km": 481.8175230651714,
      "latitude_deg": -3.256287043388951e-05,
      "longitude_deg": 117.72669682674119,
      "height_km": 482.8088272374881,
      "semi_major_axis_km": 6861.177184839509,
      "eccentricity": 0.0001782,
      "inclination_deg": 43.0048,
      "raan_deg": 2.2518,
      "arg_perigee_deg": 270.4173,
      "mean_anomaly_deg": 89.6474,
      "mean_motion_rev_day": 15.27582976
    }
  ]
}